{"type": "FeatureCollection", "features": [ {"type": "Feature", "properties": {"norad_id": 52912, "name": "GAOFEN-12 03", "group": "resource", "lat": 78.80095145513985, "lon": -165.46975774960097, "alt_km": 621.892258970468, "timestamp": "2025-12-17T10:52:54.006829+00:00", "meta": {"OBJECT_NAME": "GAOFEN-12 03", "OBJECT_ID": "2022-069A", "EPOCH": "2025-12-16T23:09:05.155200", "MEAN_MOTION": 14.79618094, "ECCENTRICITY": 0.00021044, "INCLINATION": 97.8485, "RA_OF_ASC_NODE": 238.2157, "ARG_OF_PERICENTER": 55.4486, "MEAN_ANOMALY": 304.6924, "EPHEMERIS_TYPE": 0, "CLASSIFICATION_TYPE": "U", "NORAD_CAT_ID": 52912, "ELEMENT_SET_NO": 999, "REV_AT_EPOCH": 18766, "BSTAR": 6.7250738e-05, "MEAN_MOTION_DOT": 4.53e-06, "MEAN_MOTION_DDOT": 0}, "tle": {"line1": "1 52912U 22069A   25350.96464300  .00000453  00000+0  67251-4 0  9991", "line2": "2 52912  97.8485 238.2157 0002104  55.4486 304.6924 14.79618094187664"}}, "geometry": {"type": "Point", "coordinates": [-165.46975774960097, 78.80095145513985]}}, {"type": "Feature", "properties": {"norad_id": 54754, "name": "SWOT", "group": "resource", "lat": 25.94089570044272, "lon": 94.4888089382835, "alt_km": 891.9475486057263, "timestamp": "2025-12-17T10:52:54.006839+00:00", "meta": {"OBJECT_NAME": "SWOT", "OBJECT_ID": "2022-173A", "EPOCH": "2025-12-16T23:51:45.314208", "MEAN_MOTION": 14.00167504, "ECCENTRICITY": 3.703e-05, "INCLINATION": 77.6107, "RA_OF_ASC_NODE": 281.2465, "ARG_OF_PERICENTER": 101.8255, "MEAN_ANOMALY": 258.2939, "EPHEMERIS_TYPE": 0, "CLASSIFICATION_TYPE": "U", "NORAD_CAT_ID": 54754, "ELEMENT_SET_NO": 999, "REV_AT_EPOCH": 15365, "BSTAR": 6.1256742e-05, "MEAN_MOTION_DOT": 8.8e-07, "MEAN_MOTION_DDOT": 0}, "tle": {"line1": "1 54754U 22173A   25350.99427447  .00000088  00000+0  61257-4 0  9991", "line2": "2 54754  77.6107 281.2465 0000370 101.8255 258.2939 14.00167504153651"}}, "geometry": {"type": "Point", "coordinates": [94.4888089382835, 25.94089570044272]}}, {"type": "Feature", "properties": {"norad_id": 57654, "name": "GAOFEN-12 04", "group": "resource", "lat": -71.50109788045314, "lon": 62.576804311976154, "alt_km": 638.4134740127784, "timestamp": "2025-12-17T10:52:54.006849+00:00", "meta": {"OBJECT_NAME": "GAOFEN-12 04", "OBJECT_ID": "2023-123A", "EPOCH": "2025-12-17T00:00:11.990592", "MEAN_MOTION": 14.79712677, "ECCENTRICITY": 0.00012677, "INCLINATION": 97.9124, "RA_OF_ASC_NODE": 266.6926, "ARG_OF_PERICENTER": 74.8562, "MEAN_ANOMALY": 285.279, "EPHEMERIS_TYPE": 0, "CLASSIFICATION_TYPE": "U", "NORAD_CAT_ID": 57654, "ELEMENT_SET_NO": 999, "REV_AT_EPOCH": 12568, "BSTAR": 0.00016443872, "MEAN_MOTION_DOT": 1.184e-05, "MEAN_MOTION_DDOT": 0}, "tle": {"line1": "1 57654U 23123A   25351.00013878  .00001184  00000+0  16444-3 0  9996", "line2": "2 57654  97.9124 266.6926 0001267  74.8562 285.2790 14.79712677125682"}}, "geometry": {"type": "Point", "coordinates": [62.576804311976154, -71.50109788045314]}}, {"type": "Feature", "properties": {"norad_id": 59065, "name": "PARS 1", "group": "resource", "lat": -67.5205149481501, "lon": 124.01704812142005, "alt_km": 458.4506863407287, "timestamp": "2025-12-17T10:52:54.006859+00:00", "meta": {"OBJECT_NAME": "PARS 1", "OBJECT_ID": "2024-039Q", "EPOCH": "2025-12-16T22:53:51.154656", "MEAN_MOTION": 15.41071052, "ECCENTRICITY": 0.0012319, "INCLINATION": 97.4631, "RA_OF_ASC_NODE": 321.9766, "ARG_OF_PERICENTER": 59.5814, "MEAN_ANOMALY": 300.6648, "EPHEMERIS_TYPE": 0, "CLASSIFICATION_TYPE": "U", "NORAD_CAT_ID": 59065, "ELEMENT_SET_NO": 999, "REV_AT_EPOCH": 10053, "BSTAR": 0.0002460756, "MEAN_MOTION_DOT": 0.00010111, "MEAN_MOTION_DDOT": 0}, "tle": {"line1": "1 59065U 24039Q   25350.95406429  .00010111  00000+0  24608-3 0  9993", "line2": "2 59065  97.4631 321.9766 0012319  59.5814 300.6648 15.41071052100531"}}, "geometry": {"type": "Point", "coordinates": [124.01704812142005, -67.5205149481501]}}, {"type": "Feature", "properties": {"norad_id": 59371, "name": "RESURS-P 4", "group": "resource", "lat": -58.76235086567527, "lon": 105.56250546833347, "alt_km": 477.46399118209774, "timestamp": "2025-12-17T10:52:54.006869+00:00", "meta": {"OBJECT_NAME": "RESURS-P 4", "OBJECT_ID": "2024-061A", "EPOCH": "2025-12-17T00:26:05.180064", "MEAN_MOTION": 15.32119975, "ECCENTRICITY": 0.00012032, "INCLINATION": 97.2546, "RA_OF_ASC_NODE": 297.2602, "ARG_OF_PERICENTER": 55.8338, "MEAN_ANOMALY": 304.3018, "EPHEMERIS_TYPE": 0, "CLASSIFICATION_TYPE": "U", "NORAD_CAT_ID": 59371, "ELEMENT_SET_NO": 999, "REV_AT_EPOCH": 9586, "BSTAR": 0.00010874319, "MEAN_MOTION_DOT": 3.296e-05, "MEAN_MOTION_DDOT": 0}, "tle": {"line1": "1 59371U 24061A   25351.01811551  .00003296  00000+0  10874-3 0  9998", "line2": "2 59371  97.2546 297.2602 0001203  55.8338 304.3018 15.32119975 95866"}}, "geometry": {"type": "Point", "coordinates": [105.56250546833347, -58.76235086567527]}}, {"type": "Feature", "properties": {"norad_id": 59625, "name": "LEGION 1", "group": "resource", "lat": -20.174298040253845, "lon": -116.73070963480882, "alt_km": 521.9366398657794, "timestamp": "2025-12-17T10:52:54.006879+00:00", "meta": {"OBJECT_NAME": "LEGION 1", "OBJECT_ID": "2024-081A", "EPOCH": "2025-12-16T22:54:57.791520", "MEAN_MOTION": 15.16522729, "ECCENTRICITY": 0.00037381, "INCLINATION": 97.5215, "RA_OF_ASC_NODE": 65.5575, "ARG_OF_PERICENTER": 298.8239, "MEAN_ANOMALY": 61.2619, "EPHEMERIS_TYPE": 0, "CLASSIFICATION_TYPE": "U", "NORAD_CAT_ID": 59625, "ELEMENT_SET_NO": 999, "REV_AT_EPOCH": 8991, "BSTAR": 0.00022598446, "MEAN_MOTION_DOT": 4.338e-05, "MEAN_MOTION_DDOT": 0}, "tle": {"line1": "1 59625U 24081A   25350.95483555  .00004338  00000+0  22598-3 0  9997", "line2": "2 59625  97.5215  65.5575 0003738 298.8239  61.2619 15.16522729 89915"}}, "geometry": {"type": "Point", "coordinates": [-116.73070963480882, -20.174298040253845]}}, {"type": "Feature", "properties": {"norad_id": 59626, "name": "LEGION 2", "group": "resource", "lat": 20.030108343835547, "lon": 63.37834705794586, "alt_km": 517.5530415502735, "timestamp": "2025-12-17T10:52:54.006889+00:00", "meta": {"OBJECT_NAME": "LEGION 2", "OBJECT_ID": "2024-081B", "EPOCH": "2025-12-16T22:07:27.602400", "MEAN_MOTION": 15.16534922, "ECCENTRICITY": 0.0005624, "INCLINATION": 97.5218, "RA_OF_ASC_NODE": 65.6123, "ARG_OF_PERICENTER": 275.7057, "MEAN_ANOMALY": 84.3535, "EPHEMERIS_TYPE": 0, "CLASSIFICATION_TYPE": "U", "NORAD_CAT_ID": 59626, "ELEMENT_SET_NO": 999, "REV_AT_EPOCH": 8991, "BSTAR": 0.00019821792, "MEAN_MOTION_DOT": 3.799e-05, "MEAN_MOTION_DDOT": 0}, "tle": {"line1": "1 59626U 24081B   25350.92184725  .00003799  00000+0  19822-3 0  9998", "line2": "2 59626  97.5218  65.6123 0005624 275.7057  84.3535 15.16534922 89918"}}, "geometry": {"type": "Point", "coordinates": [63.37834705794586, 20.030108343835547]}}, {"type": "Feature", "properties": {"norad_id": 60182, "name": "ALOS-4 (DAICHI-4)", "group": "resource", "lat": 49.45173191217164, "lon": -84.39901722839856, "alt_km": 625.6623588128114, "timestamp": "2025-12-17T10:52:54.006899+00:00", "meta": {"OBJECT_NAME": "ALOS-4 (DAICHI-4)", "OBJECT_ID": "2024-123A", "EPOCH": "2025-12-16T22:56:04.911360", "MEAN_MOTION": 14.79477844, "ECCENTRICITY": 0.00013999, "INCLINATION": 97.9225, "RA_OF_ASC_NODE": 85.7427, "ARG_OF_PERICENTER": 99.1223, "MEAN_ANOMALY": 261.0147, "EPHEMERIS_TYPE": 0, "CLASSIFICATION_TYPE": "U", "NORAD_CAT_ID": 60182, "ELEMENT_SET_NO": 999, "REV_AT_EPOCH": 7893, "BSTAR": 0.00025137573, "MEAN_MOTION_DOT": 1.827e-05, "MEAN_MOTION_DDOT": 0}, "tle": {"line1": "1 60182U 24123A   25350.95561240  .00001827  00000+0  25138-3 0  9995", "line2": "2 60182  97.9225  85.7427 0001399  99.1223 261.0147 14.79477844 78937"}}, "geometry": {"type": "Point", "coordinates": [-84.39901722839856, 49.45173191217164]}}, {"type": "Feature", "properties": {"norad_id": 60452, "name": "LEGION 3", "group": "resource", "lat": 44.24829807091667, "lon": 27.777065716530558, "alt_km": 517.8216247344026, "timestamp": "2025-12-17T10:52:54.006910+00:00", "meta": {"OBJECT_NAME": "LEGION 3", "OBJECT_ID": "2024-146A", "EPOCH": "2025-12-16T21:47:30.305760", "MEAN_MOTION": 15.15807517, "ECCENTRICITY": 0.00153593, "INCLINATION": 45.0023, "RA_OF_ASC_NODE": 287.7861, "ARG_OF_PERICENTER": 221.204, "MEAN_ANOMALY": 138.768, "EPHEMERIS_TYPE": 0, "CLASSIFICATION_TYPE": "U", "NORAD_CAT_ID": 60452, "ELEMENT_SET_NO": 999, "REV_AT_EPOCH": 7436, "BSTAR": 0.00023264726, "MEAN_MOTION_DOT": 4.268e-05, "MEAN_MOTION_DDOT": 0}, "tle": {"line1": "1 60452U 24146A   25350.90798965  .00004268  00000+0  23265-3 0  9992", "line2": "2 60452  45.0023 287.7861 0015359 221.2040 138.7680 15.15807517 74369"}}, "geometry": {"type": "Point", "coordinates": [27.777065716530558, 44.24829807091667]}}, {"type": "Feature", "properties": {"norad_id": 60453, "name": "LEGION 4", "group": "resource", "lat": 44.56238796388911, "lon": 116.84142461430805, "alt_km": 514.7880578441218, "timestamp": "2025-12-17T10:52:54.006920+00:00", "meta": {"OBJECT_NAME": "LEGION 4", "OBJECT_ID": "2024-146B", "EPOCH": "2025-12-16T18:38:20.196960", "MEAN_MOTION": 15.15869065, "ECCENTRICITY": 0.00091202, "INCLINATION": 45.04, "RA_OF_ASC_NODE": 20.2543, "ARG_OF_PERICENTER": 331.9551, "MEAN_ANOMALY": 28.0836, "EPHEMERIS_TYPE": 0, "CLASSIFICATION_TYPE": "U", "NORAD_CAT_ID": 60453, "ELEMENT_SET_NO": 999, "REV_AT_EPOCH": 7319, "BSTAR": 0.00022142598, "MEAN_MOTION_DOT": 4.049e-05, "MEAN_MOTION_DDOT": 0}, "tle": {"line1": "1 60453U 24146B   25350.77662265  .00004049  00000+0  22143-3 0  9992", "line2": "2 60453  45.0400  20.2543 0009120 331.9551  28.0836 15.15869065 73191"}}, "geometry": {"type": "Point", "coordinates": [116.84142461430805, 44.56238796388911]}}]}